{
  "norad_id": 65437,
  "name": "STARLINK-35080",
  "history": [
    {
      "epoch": "2026-03-28T14:06:05.954688Z",
      "apogee_km": 551.1760584414196,
      "perigee_km": 547.8272379188893,
      "latitude_deg": -3.987929808743079e-05,
      "longitude_deg": -94.47577606485646,
      "height_km": 552.4052103544221,
      "semi_major_axis_km": 6927.638648180155,
      "eccentricity": 0.0002417,
      "inclination_deg": 97.603,
      "raan_deg": 303.0549,
      "arg_perigee_deg": 84.5992,
      "mean_anomaly_deg": 275.551,
      "mean_motion_rev_day": 15.05653099
    },
    {
      "epoch": "2026-03-29T04:27:23.873472Z",
      "apogee_km": 551.1371890022174,
      "perigee_km": 547.8299429440222,
      "latitude_deg": -2.2399383337474223e-06,
      "longitude_deg": 50.19941929694422,
      "height_km": 552.3917160049255,
      "semi_major_axis_km": 6927.6205659731195,
      "eccentricity": 0.0002387,
      "inclination_deg": 97.6027,
      "raan_deg": 303.6443,
      "arg_perigee_deg": 84.6885,
      "mean_anomaly_deg": 275.4614,
      "mean_motion_rev_day": 15.05658994
    },
    {
      "epoch": "2026-03-30T04:22:53.805216Z",
      "apogee_km": 551.0515271291897,
      "perigee_km": 547.9327085003497,
      "latitude_deg": 2.1497253650357687e-05,
      "longitude_deg": 51.32493711339397,
      "height_km": 552.4282055906564,
      "semi_major_axis_km": 6927.629117814769,
      "eccentricity": 0.0002251,
      "inclination_deg": 97.6024,
      "raan_deg": 304.6271,
      "arg_perigee_deg": 85.3881,
      "mean_anomaly_deg": 274.7603,
      "mean_motion_rev_day": 15.05656206
    },
    {
      "epoch": "2026-03-30T04:22:53.806080Z",
      "apogee_km": 551.0512500240247,
      "perigee_km": 547.9329856055147,
      "latitude_deg": 2.6037788745780256e-05,
      "longitude_deg": 51.32493290082497,
      "height_km": 552.42822787843,
      "semi_major_axis_km": 6927.629117814769,
      "eccentricity": 0.00022506,
      "inclination_deg": 97.6024,
      "raan_deg": 304.6271,
      "arg_perigee_deg": 85.3881,
      "mean_anomaly_deg": 274.7603,
      "mean_motion_rev_day": 15.05656206
    },
    {
      "epoch": "2026-03-30T13:57:06.022080Z",
      "apogee_km": 551.1687902983131,
      "perigee_km": 547.8634684372282,
      "latitude_deg": 6.0911831436920695e-05,
      "longitude_deg": -92.22559966616936,
      "height_km": 552.4631900428652,
      "semi_major_axis_km": 6927.65312936777,
      "eccentricity": 0.00023856,
      "inclination_deg": 97.6025,
      "raan_deg": 305.0205,
      "arg_perigee_deg": 86.0394,
      "mean_anomaly_deg": 274.1106,
      "mean_motion_rev_day": 15.05648378
    },
    {
      "epoch": "2026-03-30T20:19:53.906880Z",
      "apogee_km": 551.1904795842083,
      "perigee_km": 547.7887378142723,
      "latitude_deg": 1.2897990345244094e-05,
      "longitude_deg": 172.07467103910022,
      "height_km": 552.397683788405,
      "semi_major_axis_km": 6927.62660869924,
      "eccentricity": 0.00024552,
      "inclination_deg": 97.6024,
      "raan_deg": 305.2823,
      "arg_perigee_deg": 84.838,
      "mean_anomaly_deg": 275.3127,
      "mean_motion_rev_day": 15.05657024
    }
  ]
}